[
    {
        "Altitude(m)": 624790.7981138634,
        "Argument of Periapsis(deg)": 0.0,
        "Eccentricity": 0.0,
        "Inclination(deg)": 60.0,
        "Latitude(deg)": -59.14712484319318,
        "Longitude(deg)": 16.034792361265037,
        "Mean Anomaly(deg)": -81.81820000000003,
        "RAAN(deg)": 190.0,
        "Satellite Name": "Test1 853",
        "Satellite Number": 853,
        "Semi-Major Axis(m)": 6980739.136638005,
        "Time(s)": 0
    },
    {
        "Altitude(m)": 624737.4524694239,
        "Argument of Periapsis(deg)": 0.00010418945913296404,
        "Eccentricity": 0.0,
        "Inclination(deg)": 60.0,
        "Latitude(deg)": -58.994577803015076,
        "Longitude(deg)": 17.154293538932,
        "Mean Anomaly(deg)": -81.19809385453819,
        "RAAN(deg)": 189.99957995086027,
        "Satellite Name": "Test1 853",
        "Satellite Number": 853,
        "Semi-Major Axis(m)": 6980739.136638005,
        "Time(s)": 10
    }
]